STARLINK-36918          
1 67956U 26037AA  26065.83334490 -.01659841  75990-3 -50047-2 0  9991
2 67956  43.0004 215.9346 0001247 280.7199 322.3048 15.91382820  2739
STARLINK-36829          
1 67957U 26037AB  26065.83334490 -.01444887  00000+0 -50198-2 0  9997
2 67957  43.0001 215.9521 0001335 281.2499 314.9940 15.91172518  2738
STARLINK-36799          
1 67958U 26037AC  26065.83334490 -.01659893  76084-3 -49729-2 0  9990
2 67958  42.9999 215.9274 0001506 281.5004 324.5735 15.91506142  2736
STARLINK-36834          
1 67959U 26037AD  26065.83334490 -.01662659  76474-3 -49274-2 0  9993
2 67959  43.0000 215.9101 0001228 278.4764 334.2927 15.91717108  2737
STARLINK-36841          
1 67960U 26037AE  26065.83334490 -.01657854  75993-3 -49386-2 0  9995
2 67960  42.9998 215.9188 0001300 280.4512 328.8382 15.91616559  2735
STARLINK-36912          
1 67961U 26038A   26065.83334490 -.01569388  72827-3 -37465-2 0  9999
2 67961  97.2753  75.8936 0001347  77.7382 153.7143 15.96699545  2736
STARLINK-36881          
1 67962U 26038B   26065.83334490 -.01544961  70791-3 -36731-2 0  9993
2 67962  97.2752  75.8944 0001188  78.6334 155.0080 15.96772209  2739
STARLINK-36357          
1 67963U 26038C   26065.83334490 -.01562486  72491-3 -36630-2 0  9993
2 67963  97.2749  75.8971 0001466  76.4157 163.1176 15.97031656  2735
STARLINK-36349          
1 67964U 26038D   26065.83334490 -.01564970  72609-3 -36936-2 0  9994
2 67964  97.2747  75.8954 0001445  76.1713 160.4123 15.96908599  2737
STARLINK-36806          
1 67965U 26038E   26065.83334490 -.01558323  72243-3 -36251-2 0  9994
2 67965  97.2743  75.8983 0001315  77.6643 165.2904 15.97173448  2738
STARLINK-36820          
1 67966U 26038F   26065.83334490 -.01540951  70842-3 -35621-2 0  9996
2 67966  97.2742  75.8995 0001313  84.5035 161.3168 15.97287145  2730
STARLINK-36819          
1 67967U 26038G   26065.83334490 -.01557324  72353-3 -35736-2 0  9995
2 67967  97.2741  75.9009 0001297  81.1025 167.8040 15.97423610  2739
STARLINK-36812          
1 67968U 26038H   26065.83334490 -.01556932  72405-3 -35514-2 0  9992
2 67968  97.2736  75.9016 0001254  84.2959 167.2551 15.97532917  2737
STARLINK-36709          
1 67969U 26038J   26065.83334490 -.01545588  71634-3 -34743-2 0  9994
2 67969  97.2737  75.9046 0001303  86.3095 171.5509 15.97798087  2734
STARLINK-36319          
1 67970U 26038K   26065.83334490 -.01521684  69480-3 -34477-2 0  9997
2 67970  97.2736  75.9029 0001338  88.5564 166.1266 15.97651068  2703
STARLINK-36710          
1 67971U 26038L   26065.83334490 -.01512391  68918-3 -33708-2 0  9994
2 67971  97.2734  75.9061 0001258  88.4748 173.2474 15.97948536  2734
